CCSDS_OMM_VERS = 2.0
CREATION_DATE  = 
ORIGINATOR     = 

OBJECT_NAME    = DELTA 2 R/B(1)
OBJECT_ID      = 1990-008B
CENTER_NAME    = EARTH
REF_FRAME      = TEME
TIME_SYSTEM    = UTC
MEAN_ELEMENT_THEORY = SGP/SGP4

EPOCH          = 2026-03-05T17:12:02.383200
MEAN_MOTION    = 15.55380339
ECCENTRICITY   = .00863063
INCLINATION    = 35.6041
RA_OF_ASC_NODE = 200.9171
ARG_OF_PERICENTER = 222.0016
MEAN_ANOMALY   = 137.4078

EPHEMERIS_TYPE = 0
CLASSIFICATION_TYPE = U
NORAD_CAT_ID   = 20453
ELEMENT_SET_NO = 999
REV_AT_EPOCH   = 92551
BSTAR          = .9568822E-3
MEAN_MOTION_DOT = .80331E-3
MEAN_MOTION_DDOT = 0

CCSDS_OMM_VERS = 2.0
CREATION_DATE  = 
ORIGINATOR     = 

OBJECT_NAME    = COSMOS 2058
OBJECT_ID      = 1990-010A
CENTER_NAME    = EARTH
REF_FRAME      = TEME
TIME_SYSTEM    = UTC
MEAN_ELEMENT_THEORY = SGP/SGP4

EPOCH          = 2026-03-05T22:34:09.475680
MEAN_MOTION    = 15.11279556
ECCENTRICITY   = .00096829
INCLINATION    = 82.4670
RA_OF_ASC_NODE = 51.1216
ARG_OF_PERICENTER = 356.0267
MEAN_ANOMALY   = 4.0884

EPHEMERIS_TYPE = 0
CLASSIFICATION_TYPE = U
NORAD_CAT_ID   = 20465
ELEMENT_SET_NO = 999
REV_AT_EPOCH   = 94167
BSTAR          = .28070857E-3
MEAN_MOTION_DOT = .4756E-4
MEAN_MOTION_DDOT = 0

CCSDS_OMM_VERS = 2.0
CREATION_DATE  = 
ORIGINATOR     = 

OBJECT_NAME    = SL-14 R/B
OBJECT_ID      = 1990-010B
CENTER_NAME    = EARTH
REF_FRAME      = TEME
TIME_SYSTEM    = UTC
MEAN_ELEMENT_THEORY = SGP/SGP4

EPOCH          = 2026-03-05T23:27:21.539232
MEAN_MOTION    = 14.83564862
ECCENTRICITY   = .00187682
INCLINATION    = 82.4991
RA_OF_ASC_NODE = 270.8769
ARG_OF_PERICENTER = 315.3173
MEAN_ANOMALY   = 44.6529

EPHEMERIS_TYPE = 0
CLASSIFICATION_TYPE = U
NORAD_CAT_ID   = 20466
ELEMENT_SET_NO = 999
REV_AT_EPOCH   = 92793
BSTAR          = .56099217E-4
MEAN_MOTION_DOT = .487E-5
MEAN_MOTION_DDOT = 0

CCSDS_OMM_VERS = 2.0
CREATION_DATE  = 
ORIGINATOR     = 

OBJECT_NAME    = SL-14 R/B
OBJECT_ID      = 1990-018B
CENTER_NAME    = EARTH
REF_FRAME      = TEME
TIME_SYSTEM    = UTC
MEAN_ELEMENT_THEORY = SGP/SGP4

EPOCH          = 2026-03-05T22:10:41.760480
MEAN_MOTION    = 14.82139560
ECCENTRICITY   = .00176391
INCLINATION    = 82.5195
RA_OF_ASC_NODE = 226.6094
ARG_OF_PERICENTER = 103.4699
MEAN_ANOMALY   = 256.8482

EPHEMERIS_TYPE = 0
CLASSIFICATION_TYPE = U
NORAD_CAT_ID   = 20511
ELEMENT_SET_NO = 999
REV_AT_EPOCH   = 92202
BSTAR          = .76436917E-4
MEAN_MOTION_DOT = .633E-5
MEAN_MOTION_DDOT = 0

CCSDS_OMM_VERS = 2.0
CREATION_DATE  = 
ORIGINATOR     = 

OBJECT_NAME    = HST
OBJECT_ID      = 1990-037B
CENTER_NAME    = EARTH
REF_FRAME      = TEME
TIME_SYSTEM    = UTC
MEAN_ELEMENT_THEORY = SGP/SGP4

EPOCH          = 2026-03-05T02:44:22.469280
MEAN_MOTION    = 15.29398003
ECCENTRICITY   = .00017656
INCLINATION    = 28.4704
RA_OF_ASC_NODE = 71.2101
ARG_OF_PERICENTER = 80.6022
MEAN_ANOMALY   = 279.4773

EPHEMERIS_TYPE = 0
CLASSIFICATION_TYPE = U
NORAD_CAT_ID   = 20580
ELEMENT_SET_NO = 999
REV_AT_EPOCH   = 77261
BSTAR          = .33044046E-3
MEAN_MOTION_DOT = .9931E-4
MEAN_MOTION_DDOT = 0

CCSDS_OMM_VERS = 2.0
CREATION_DATE  = 
ORIGINATOR     = 

OBJECT_NAME    = SL-16 R/B
OBJECT_ID      = 1990-046B
CENTER_NAME    = EARTH
REF_FRAME      = TEME
TIME_SYSTEM    = UTC
MEAN_ELEMENT_THEORY = SGP/SGP4

EPOCH          = 2026-03-05T22:48:45.384192
MEAN_MOTION    = 14.15013791
ECCENTRICITY   = .00161957
INCLINATION    = 70.9995
RA_OF_ASC_NODE = 305.7678
ARG_OF_PERICENTER = 304.5886
MEAN_ANOMALY   = 55.3708

EPHEMERIS_TYPE = 0
CLASSIFICATION_TYPE = U
NORAD_CAT_ID   = 20625
ELEMENT_SET_NO = 999
REV_AT_EPOCH   = 84786
BSTAR          = -.93290873E-4
MEAN_MOTION_DOT = -.229E-5
MEAN_MOTION_DDOT = 0

CCSDS_OMM_VERS = 2.0
CREATION_DATE  = 
ORIGINATOR     = 

OBJECT_NAME    = COSMOS 2084
OBJECT_ID      = 1990-055A
CENTER_NAME    = EARTH
REF_FRAME      = TEME
TIME_SYSTEM    = UTC
MEAN_ELEMENT_THEORY = SGP/SGP4

EPOCH          = 2026-03-05T22:28:16.835808
MEAN_MOTION    = 15.05623123
ECCENTRICITY   = .00177031
INCLINATION    = 62.7925
RA_OF_ASC_NODE = 348.3787
ARG_OF_PERICENTER = 189.0297
MEAN_ANOMALY   = 171.0488

EPHEMERIS_TYPE = 0
CLASSIFICATION_TYPE = U
NORAD_CAT_ID   = 20663
ELEMENT_SET_NO = 999
REV_AT_EPOCH   = 93575
BSTAR          = .23136621E-3
MEAN_MOTION_DOT = .3163E-4
MEAN_MOTION_DDOT = 0

CCSDS_OMM_VERS = 2.0
CREATION_DATE  = 
ORIGINATOR     = 

OBJECT_NAME    = SL-6 R/B(2)
OBJECT_ID      = 1990-055D
CENTER_NAME    = EARTH
REF_FRAME      = TEME
TIME_SYSTEM    = UTC
MEAN_ELEMENT_THEORY = SGP/SGP4

EPOCH          = 2026-03-05T21:55:53.763744
MEAN_MOTION    = 15.03571825
ECCENTRICITY   = .00241774
INCLINATION    = 62.7820
RA_OF_ASC_NODE = 266.6918
ARG_OF_PERICENTER = 346.0712
MEAN_ANOMALY   = 13.9718

EPHEMERIS_TYPE = 0
CLASSIFICATION_TYPE = U
NORAD_CAT_ID   = 20666
ELEMENT_SET_NO = 999
REV_AT_EPOCH   = 93762
BSTAR          = .17991821E-3
MEAN_MOTION_DOT = .2283E-4
MEAN_MOTION_DDOT = 0

CCSDS_OMM_VERS = 2.0
CREATION_DATE  = 
ORIGINATOR     = 

OBJECT_NAME    = SL-8 R/B
OBJECT_ID      = 1990-078B
CENTER_NAME    = EARTH
REF_FRAME      = TEME
TIME_SYSTEM    = UTC
MEAN_ELEMENT_THEORY = SGP/SGP4

EPOCH          = 2026-03-05T22:43:29.091072
MEAN_MOTION    = 14.88912757
ECCENTRICITY   = .0363119
INCLINATION    = 82.9000
RA_OF_ASC_NODE = 254.6775
ARG_OF_PERICENTER = 26.5696
MEAN_ANOMALY   = 335.3631

EPHEMERIS_TYPE = 0
CLASSIFICATION_TYPE = U
NORAD_CAT_ID   = 20775
ELEMENT_SET_NO = 999
REV_AT_EPOCH   = 80874
BSTAR          = .51042795E-3
MEAN_MOTION_DOT = .1735E-3
MEAN_MOTION_DDOT = 0

CCSDS_OMM_VERS = 2.0
CREATION_DATE  = 
ORIGINATOR     = 

OBJECT_NAME    = SL-8 R/B
OBJECT_ID      = 1991-006B
CENTER_NAME    = EARTH
REF_FRAME      = TEME
TIME_SYSTEM    = UTC
MEAN_ELEMENT_THEORY = SGP/SGP4

EPOCH          = 2026-03-05T17:22:41.686176
MEAN_MOTION    = 13.77493733
ECCENTRICITY   = .00232994
INCLINATION    = 82.9465
RA_OF_ASC_NODE = 172.9938
ARG_OF_PERICENTER = 49.0675
MEAN_ANOMALY   = 121.7763

EPHEMERIS_TYPE = 0
CLASSIFICATION_TYPE = U
NORAD_CAT_ID   = 21088
ELEMENT_SET_NO = 999
REV_AT_EPOCH   = 76352
BSTAR          = .72380504E-4
MEAN_MOTION_DOT = .88E-6
MEAN_MOTION_DDOT = 0

CCSDS_OMM_VERS = 2.0
CREATION_DATE  = 
ORIGINATOR     = 

OBJECT_NAME    = OKEAN-3
OBJECT_ID      = 1991-039A
CENTER_NAME    = EARTH
REF_FRAME      = TEME
TIME_SYSTEM    = UTC
MEAN_ELEMENT_THEORY = SGP/SGP4

EPOCH          = 2026-03-05T18:08:15.391680
MEAN_MOTION    = 15.04770467
ECCENTRICITY   = .00142143
INCLINATION    = 82.5195
RA_OF_ASC_NODE = 340.6539
ARG_OF_PERICENTER = 352.8041
MEAN_ANOMALY   = 7.2979

EPHEMERIS_TYPE = 0
CLASSIFICATION_TYPE = U
NORAD_CAT_ID   = 21397
ELEMENT_SET_NO = 999
REV_AT_EPOCH   = 86444
BSTAR          = .31969477E-3
MEAN_MOTION_DOT = .4544E-4
MEAN_MOTION_DDOT = 0

CCSDS_OMM_VERS = 2.0
CREATION_DATE  = 
ORIGINATOR     = 

OBJECT_NAME    = COSMOS 2151
OBJECT_ID      = 1991-042A
CENTER_NAME    = EARTH
REF_FRAME      = TEME
TIME_SYSTEM    = UTC
MEAN_ELEMENT_THEORY = SGP/SGP4

EPOCH          = 2026-03-05T22:45:00.047808
MEAN_MOTION    = 15.00087394
ECCENTRICITY   = .00140455
INCLINATION    = 82.4928
RA_OF_ASC_NODE = 87.2865
ARG_OF_PERICENTER = 74.8770
MEAN_ANOMALY   = 285.4006

EPHEMERIS_TYPE = 0
CLASSIFICATION_TYPE = U
NORAD_CAT_ID   = 21422
ELEMENT_SET_NO = 999
REV_AT_EPOCH   = 86263
BSTAR          = .17596775E-3
MEAN_MOTION_DOT = .2223E-4
MEAN_MOTION_DDOT = 0

